NORAD_CAT_ID,OBJECT_NAME,OBJECT_TYPE,EPOCH,MEAN_MOTION,ECCENTRICITY,INCLINATION,RA_OF_ASC_NODE,ARG_OF_PERICENTER,MEAN_ANOMALY,BSTAR,MEAN_MOTION_DOT,MEAN_MOTION_DDOT,TLE_LINE0,TLE_LINE1,TLE_LINE2,SEMIMAJOR_AXIS,PERIOD,APOGEE,PERIGEE,DECAYED
52296.0,STARLINK-3766,PAYLOAD,2024-06-09 01:09:21,15.08833542,0.0001597,53.2188,86.0986,90.0239,270.0936,3.2733e-05,2.33e-06,0.0,0 STARLINK-3766,1 52296U 22041AM  24161.04816580  .00000233  00000-0  32733-4 0  9999,2 52296  53.2188  86.0986 0001597  90.0239 270.0936 15.08833542118090,6917.9,95.438,540.87,538.66,0.0
52296.0,STARLINK-3766,PAYLOAD,2024-06-09 18:38:35,15.08838918,0.0001404,53.2194,82.8277,92.0876,268.0277,8.1465e-05,1.009e-05,0.0,0 STARLINK-3766,1 52296U 22041AM  24161.77680255  .00001009  00000-0  81465-4 0  9995,2 52296  53.2194  82.8277 0001404  92.0876 268.0277 15.08838918118200,6917.884,95.438,540.72,538.777,0.0
52296.0,STARLINK-3766,PAYLOAD,2024-06-10 01:00:07,15.08843205,0.000123,53.2179,81.6376,94.7899,265.3234,0.00012092,1.637e-05,0.0,0 STARLINK-3766,1 52296U 22041AM  24162.04175849  .00001637  00000-0  12092-3 0  9990,2 52296  53.2179  81.6376 0001230  94.7899 265.3234 15.08843205119468,6917.871,95.437,540.586,538.885,0.0
52296.0,STARLINK-3766,PAYLOAD,2024-06-10 12:07:49,15.0884771,0.0001195,53.2178,79.5545,97.6203,262.4925,-2.3267e-05,-6.58e-06,0.0,0 STARLINK-3766,1 52296U 22041AM  24162.50543779 -.00000658  00000-0 -23267-4 0  9993,2 52296  53.2178  79.5545 0001195  97.6203 262.4925 15.08847710118315,6917.857,95.437,540.549,538.895,0.0
52296.0,STARLINK-3766,PAYLOAD,2024-06-10 21:40:09,15.08834607,0.0001329,53.2178,77.77,104.6646,255.4493,0.00015014,2.102e-05,0.0,0 STARLINK-3766,1 52296U 22041AM  24162.90288356  .00002102  00000-0  15014-3 0  9998,2 52296  53.2178  77.7700 0001329 104.6646 255.4493 15.08834607118376,6917.897,95.438,540.681,538.842,0.0
52296.0,STARLINK-3766,PAYLOAD,2024-06-11 04:01:41,15.08845308,0.0001411,53.2183,76.5805,102.8467,257.2683,0.00011595,1.558e-05,0.0,0 STARLINK-3766,1 52296U 22041AM  24163.16783769  .00001558  00000-0  11595-3 0  9999,2 52296  53.2183  76.5805 0001411 102.8467 257.2683 15.08845308119639,6917.864,95.437,540.705,538.753,0.0
52296.0,STARLINK-3766,PAYLOAD,2024-06-12 00:41:41,15.08849118,0.0001669,53.2196,72.7129,116.5382,243.5781,6.3934e-05,7.3e-06,0.0,0 STARLINK-3766,1 52296U 22041AM  24164.02895434  .00000730  00000-0  63934-4 0  9994,2 52296  53.2196  72.7129 0001669 116.5382 243.5781 15.08849118118542,6917.853,95.437,540.872,538.563,0.0
52296.0,STARLINK-3766,PAYLOAD,2024-06-12 21:21:43,15.08835965,0.0001401,53.2191,68.849,101.8112,258.3038,2.1112e-05,4.8e-07,0.0,0 STARLINK-3766,1 52296U 22041AM  24164.89008406  .00000048  00000-0  21112-4 0  9998,2 52296  53.2191  68.8490 0001401 101.8112 258.3038 15.08835965119899,6917.893,95.438,540.727,538.789,0.0
52296.0,STARLINK-3766,PAYLOAD,2024-06-13 10:04:48,15.08838785,0.00013,53.2188,66.4707,95.6348,264.4792,-3.1032e-05,-7.82e-06,0.0,0 STARLINK-3766,1 52296U 22041AM  24165.42000419 -.00000782  00000-0 -31032-4 0  9993,2 52296  53.2188  66.4707 0001300  95.6348 264.4792 15.08838785118751,6917.884,95.438,540.648,538.85,0.0
52296.0,STARLINK-3766,PAYLOAD,2024-06-13 22:47:53,15.0884378,0.0001377,53.2194,64.0941,103.6825,256.432,-1.0673e-05,-4.58e-06,0.0,0 STARLINK-3766,1 52296U 22041AM  24165.94992202 -.00000458  00000-0 -10673-4 0  9998,2 52296  53.2194  64.0941 0001377 103.6825 256.4320 15.08843780118834,6917.869,95.437,540.686,538.781,0.0
52296.0,STARLINK-3766,PAYLOAD,2024-06-14 09:55:35,15.08846709,0.0001352,53.2191,62.0139,101.6858,258.4286,-2.6902e-05,-7.16e-06,0.0,0 STARLINK-3766,1 52296U 22041AM  24166.41359997 -.00000716  00000-0 -26902-4 0  9998,2 52296  53.2191  62.0139 0001352 101.6858 258.4286 15.08846709118900,6917.86,95.437,540.66,538.79,0.0
52296.0,STARLINK-3766,PAYLOAD,2024-06-14 22:38:40,15.08831928,0.000148,53.2192,59.6358,106.0992,254.0163,6.3745e-05,7.26e-06,0.0,0 STARLINK-3766,1 52296U 22041AM  24166.94352977  .00000726  00000-0  63745-4 0  9992,2 52296  53.2192  59.6358 0001480 106.0992 254.0163 15.08831928118987,6917.905,95.438,540.794,538.746,0.0
52296.0,STARLINK-3766,PAYLOAD,2024-06-15 09:46:22,15.08836188,0.0001578,53.2207,57.5506,86.6601,273.4571,8.0522e-05,9.94e-06,0.0,0 STARLINK-3766,1 52296U 22041AM  24167.40720900  .00000994  00000-0  80522-4 0  9998,2 52296  53.2207  57.5506 0001578  86.6601 273.4571 15.08836188119054,6917.892,95.438,540.849,538.665,0.0
52296.0,STARLINK-3766,PAYLOAD,2024-06-15 22:29:27,15.08844281,0.0001252,53.2177,55.1733,93.0902,267.0233,6.945e-05,8.18e-06,0.0,0 STARLINK-3766,1 52296U 22041AM  24167.93712422  .00000818  00000-0  69450-4 0  9998,2 52296  53.2177  55.1733 0001252  93.0902 267.0233 15.08844281119137,6917.867,95.437,540.598,538.866,0.0
52296.0,STARLINK-3766,PAYLOAD,2024-06-16 09:37:09,15.08843503,0.0001233,53.218,53.0901,78.9025,281.2106,4.2503e-05,3.89e-06,0.0,0 STARLINK-3766,1 52296U 22041AM  24168.40080451  .00000389  00000-0  42503-4 0  9994,2 52296  53.2180  53.0901 0001233  78.9025 281.2106 15.08843503119203,6917.87,95.437,540.588,538.882,0.0
52296.0,STARLINK-3766,PAYLOAD,2024-06-16 22:20:15,15.08835264,0.0001289,53.2165,50.7115,79.5603,280.5534,8.4596e-05,1.059e-05,0.0,0 STARLINK-3766,1 52296U 22041AM  24168.93073000  .00001059  00000-0  84596-4 0  9997,2 52296  53.2165  50.7115 0001289  79.5603 280.5534 15.08835264119287,6917.895,95.438,540.652,538.868,0.0
52296.0,STARLINK-3766,PAYLOAD,2024-06-17 20:35:39,15.08837326,0.0001289,53.2185,46.5512,79.1186,280.9952,3.5971e-05,2.85e-06,0.0,0 STARLINK-3766,1 52296U 22041AM  24169.85809113  .00000285  00000-0  35971-4 0  9994,2 52296  53.2185  46.5512 0001289  79.1186 280.9952 15.08837326120646,6917.889,95.438,540.645,538.862,0.0
52296.0,STARLINK-3766,PAYLOAD,2024-06-17 22:11:01,15.08842062,0.0001401,53.2184,46.251,88.5416,271.5737,6.5874e-05,7.61e-06,0.0,0 STARLINK-3766,1 52296U 22041AM  24169.92432706  .00000761  00000-0  65874-4 0  9996,2 52296  53.2184  46.2510 0001401  88.5416 271.5737 15.08842062119431,6917.874,95.437,540.708,538.77,0.0
52296.0,STARLINK-3766,PAYLOAD,2024-06-18 20:26:25,15.08843194,0.0001374,53.2181,42.0891,82.469,277.6458,0.00012846,1.757e-05,0.0,0 STARLINK-3766,1 52296U 22041AM  24170.85168335  .00001757  00000-0  12846-3 0  9990,2 52296  53.2181  42.0891 0001374  82.4690 277.6458 15.08843194120795,6917.871,95.437,540.686,538.785,0.0
52296.0,STARLINK-3766,PAYLOAD,2024-06-18 22:01:48,15.08843817,0.0001224,53.2181,41.7903,88.5169,271.5964,0.0001897,2.733e-05,0.0,0 STARLINK-3766,1 52296U 22041AM  24170.91792098  .00002733  00000-0  18970-3 0  9995,2 52296  53.2181  41.7903 0001224  88.5169 271.5964 15.08843817119589,6917.869,95.437,540.58,538.887,0.0
52296.0,STARLINK-3766,PAYLOAD,2024-06-19 20:17:13,15.08825376,0.0001517,53.2193,37.626,102.688,257.4282,0.00012741,1.74e-05,0.0,0 STARLINK-3766,1 52296U 22041AM  24171.84529458  .00001740  00000-0  12741-3 0  9993,2 52296  53.2193  37.6260 0001517 102.6880 257.4282 15.08825376120943,6917.925,95.438,540.84,538.741,0.0
52296.0,STARLINK-3766,PAYLOAD,2024-06-19 21:52:36,15.08835959,0.0001555,53.2193,37.3288,102.1379,257.9787,-2.9309e-05,-7.54e-06,0.0,0 STARLINK-3766,1 52296U 22041AM  24171.91153172 -.00000754  00000-0 -29309-4 0  9992,2 52296  53.2193  37.3288 0001555 102.1379 257.9787 15.08835959119738,6917.893,95.438,540.833,538.682,0.0
52296.0,STARLINK-3766,PAYLOAD,2024-06-20 21:43:22,15.08844504,0.0001526,53.219,32.8705,101.5713,258.5451,4.4781e-05,4.25e-06,0.0,0 STARLINK-3766,1 52296U 22041AM  24172.90512451  .00000425  00000-0  44781-4 0  9995,2 52296  53.2190  32.8705 0001526 101.5713 258.5451 15.08844504121107,6917.867,95.437,540.787,538.676,0.0
52296.0,STARLINK-3766,PAYLOAD,2024-06-21 00:54:09,15.08795037,0.0001759,53.2174,32.2762,89.0238,271.0956,0.00079541,0.00012378,0.0,0 STARLINK-3766,1 52296U 22041AM  24173.03761474  .00012378  00000-0  79541-3 0  9992,2 52296  53.2174  32.2762 0001759  89.0238 271.0956 15.08795037121124,6918.018,95.44,541.1,538.666,0.0
52296.0,STARLINK-3766,PAYLOAD,2024-06-21 19:58:47,15.08832368,0.0001339,53.2171,28.7019,84.9843,275.1302,3.9118e-05,3.35e-06,0.0,0 STARLINK-3766,1 52296U 22041AM  24173.83249636  .00000335  00000-0  39118-4 0  9998,2 52296  53.2171  28.7019 0001339  84.9843 275.1302 15.08832368121248,6917.904,95.438,540.695,538.842,0.0
52296.0,STARLINK-3766,PAYLOAD,2024-06-21 21:34:10,15.08833225,0.0001337,53.2173,28.4044,85.3277,274.7868,4.8082e-05,4.77e-06,0.0,0 STARLINK-3766,1 52296U 22041AM  24173.89873595  .00000477  00000-0  48082-4 0  9998,2 52296  53.2173  28.4044 0001337  85.3277 274.7868 15.08833225120030,6917.901,95.438,540.691,538.841,0.0
52296.0,STARLINK-3766,PAYLOAD,2024-06-22 19:49:34,15.08843545,0.000129,53.2175,24.241,75.3511,284.7625,3.3263e-05,2.42e-06,0.0,0 STARLINK-3766,1 52296U 22041AM  24174.82609267  .00000242  00000-0  33263-4 0  9990,2 52296  53.2175  24.2410 0001290  75.3511 284.7625 15.08843545121399,6917.87,95.437,540.627,538.842,0.0
52296.0,STARLINK-3766,PAYLOAD,2024-06-22 21:24:57,15.08844909,0.0001265,53.2165,23.9473,79.3995,280.7139,4.328e-05,4.01e-06,0.0,0 STARLINK-3766,1 52296U 22041AM  24174.89233187  .00000401  00000-0  43280-4 0  9998,2 52296  53.2165  23.9473 0001265  79.3995 280.7139 15.08844909120182,6917.865,95.437,540.605,538.855,0.0
52296.0,STARLINK-3766,PAYLOAD,2024-06-23 13:18:49,15.08835945,0.0001422,53.2177,20.9766,99.5207,260.5946,0.00013859,1.918e-05,0.0,0 STARLINK-3766,1 52296U 22041AM  24175.55473551  .00001918  00000-0  13859-3 0  9995,2 52296  53.2177  20.9766 0001422  99.5207 260.5946 15.08835945120285,6917.893,95.438,540.742,538.774,0.0
52296.0,STARLINK-3766,PAYLOAD,2024-06-23 21:15:44,15.08842783,0.0001403,53.2179,19.49,95.3061,264.8092,0.00012578,1.715e-05,0.0,0 STARLINK-3766,1 52296U 22041AM  24175.88593246  .00001715  00000-0  12578-3 0  9997,2 52296  53.2179  19.4900 0001403  95.3061 264.8092 15.08842783121559,6917.872,95.437,540.707,538.766,0.0
